*******************************************************************************
 Revised: April 12, 2021                Venus                           299 / 2
 
 PHYSICAL DATA (updated 2020-Oct-19):
  Vol. Mean Radius (km) =  6051.84+-0.01 Density (g/cm^3)      =  5.204
  Mass x10^23 (kg)      =    48.685      Volume (x10^10 km^3)  = 92.843
  Sidereal rot. period  =   243.018484 d Sid. Rot. Rate (rad/s)= -0.00000029924
  Mean solar day        =   116.7490 d   Equ. gravity  m/s^2   =  8.870
  Mom. of Inertia       =     0.33       Core radius (km)      = ~3200
  Geometric Albedo      =     0.65       Potential Love # k2   = ~0.25
  GM (km^3/s^2)         = 324858.592     Equatorial Radius, Re = 6051.893 km
  GM 1-sigma (km^3/s^2) =    +-0.006     Mass ratio (Sun/Venus)= 408523.72
  Atmos. pressure (bar) =  90            Max. angular diam.    =   60.2"
  Mean Temperature (K)  = 735            Visual mag. V(1,0)    =   -4.40
  Obliquity to orbit    = 177.3 deg      Hill's sphere rad.,Rp =  167.1
  Sidereal orb. per., y =   0.61519726   Orbit speed, km/s     =   35.021
  Sidereal orb. per., d = 224.70079922   Escape speed, km/s    =   10.361
                                 Perihelion  Aphelion    Mean
  Solar Constant (W/m^2)         2759         2614       2650
  Maximum Planetary IR (W/m^2)    153         153         153
  Minimum Planetary IR (W/m^2)    153         153         153
*******************************************************************************


*******************************************************************************
Ephemeris / WWW_USER Mon Jan  5 13:45:23 2026 Pasadena, USA      / Horizons
*******************************************************************************
Target body name: Venus Barycenter (299)          {source: DE441}
Center body name: Solar System Barycenter (0)     {source: DE441}
Center-site name: BODY CENTER
*******************************************************************************
Start time      : A.D. 2026-Jan-05 00:00:00.0000 TDB
Stop  time      : A.D. 2026-Apr-03 00:00:00.0000 TDB
Step-size       : 1440 minutes
*******************************************************************************
Center geodetic : 0.0, 0.0, 0.0                   {E-lon(deg),Lat(deg),Alt(km)}
Center cylindric: 0.0, 0.0, 0.0                   {E-lon(deg),Dxy(km),Dz(km)}
Center radii    : (undefined)
Output units    : KM-S
Calendar mode   : Mixed Julian/Gregorian
Output type     : GEOMETRIC cartesian states
Output format   : 3 (position, velocity, LT, range, range-rate)
Reference frame : Ecliptic of J2000.0
*******************************************************************************
JDTDB
   X     Y     Z
   VX    VY    VZ
   LT    RG    RR
*******************************************************************************
$$SOE
2461117.500000000 = A.D. 2026-Mar-18 00:00:00.0000 TDB 
 X = 8.527737832208604E+07 Y = 6.525227509266342E+07 Z =-4.016401733541839E+06
 VX=-2.148598558183750E+01 VY= 2.758111471753044E+01 VZ= 1.619092129599363E+00
 LT= 3.584257902627710E+02 RG= 1.074533486734686E+08 RR=-3.633293991550075E-01
2461118.500000000 = A.D. 2026-Mar-19 00:00:00.0000 TDB 
 X = 8.338778128184238E+07 Y = 6.760917138343108E+07 Z =-3.874954862543486E+06
 VX=-2.225191030800870E+01 VY= 2.697306090057921E+01 VZ= 1.654931219366695E+00
 LT= 3.583220190290401E+02 RG= 1.074222388402387E+08 RR=-3.567596141528636E-01
2461119.500000000 = A.D. 2026-Mar-20 00:00:00.0000 TDB 
 X = 8.143273680243823E+07 Y = 6.991260295677291E+07 Z =-3.730466287556283E+06
 VX=-2.300087079123546E+01 VY= 2.634358199855459E+01 VZ= 1.689497120591135E+00
 LT= 3.582201807680996E+02 RG= 1.073917084976729E+08 RR=-3.499160337646745E-01
2461120.500000000 = A.D. 2026-Mar-21 00:00:00.0000 TDB 
 X = 7.941373681016688E+07 Y = 7.216073876381809E+07 Z =-3.583047248858146E+06
 VX=-2.373226220634386E+01 VY= 2.569314572923004E+01 VZ= 1.722761360834529E+00
 LT= 3.581203537104500E+02 RG= 1.073617810986852E+08 RR=-3.428033957198589E-01
2461121.500000000 = A.D. 2026-Mar-22 00:00:00.0000 TDB 
 X = 7.733232495707265E+07 Y = 7.435178892387789E+07 Z =-3.432811405693319E+06
 VX=-2.444549211109106E+01 VY= 2.502223729279890E+01 VZ= 1.754696422341592E+00
 LT= 3.580226146880243E+02 RG= 1.073324796769097E+08 RR=-3.354266674318567E-01
2461122.500000000 = A.D. 2026-Mar-23 00:00:00.0000 TDB 
 X = 7.519009552835321E+07 Y = 7.648400622192486E+07 Z =-3.279874752655864E+06
 VX=-2.513998097096080E+01 VY= 2.433135906805935E+01 VZ= 1.785275768147336E+00
 LT= 3.579270390683599E+02 RG= 1.073038268269656E+08 RR=-3.277910434022037E-01
2461123.500000000 = A.D. 2026-Mar-24 00:00:00.0000 TDB 
 X = 7.298869230467209E+07 Y = 7.855568757909200E+07 Z =-3.124355533842113E+06
 VX=-2.581516267808657E+01 VY= 2.362103029175717E+01 VZ= 1.814473867613870E+00
 LT= 3.578337006895648E+02 RG= 1.072758446849609E+08 RR=-3.199019423286227E-01
2461124.500000000 = A.D. 2026-Mar-25 00:00:00.0000 TDB 
 X = 7.072980737990375E+07 Y = 8.056517549474137E+07 Z =-2.966374154822093E+06
 VX=-2.647048506381972E+01 VY= 2.289178672108814E+01 VZ= 1.842266221368989E+00
 LT= 3.577426717961446E+02 RG= 1.072485549092535E+08 RR=-3.117650039909122E-01
2461125.500000000 = A.D. 2026-Mar-26 00:00:00.0000 TDB 
 X = 6.841517993489571E+07 Y = 8.251085945864417E+07 Z =-2.806053092483822E+06
 VX=-2.710541040421047E+01 VY= 2.214418027935140E+01 VZ= 1.868629385604542E+00
 LT= 3.576540229757720E+02 RG= 1.072219786614952E+08 RR=-3.033860858480303E-01
2461126.500000000 = A.D. 2026-Mar-27 00:00:00.0000 TDB 
 X = 6.604659496788202E+07 Y = 8.439117733182047E+07 Z =-2.643516802806847E+06
 VX=-2.771941591786679E+01 VY= 2.137877868483611E+01 VZ= 1.893540995704672E+00
 LT= 3.575678230970721E+02 RG= 1.071961365879804E+08 RR=-2.947712593809432E-01
2461127.500000000 = A.D. 2026-Mar-28 00:00:00.0000 TDB 
 X = 6.362588198223343E+07 Y = 8.620461669459288E+07 Z =-2.478891626624592E+06
 VX=-2.831199425556343E+01 VY= 2.059616506301479E+01 VZ= 1.916979789168650E+00
 LT= 3.574841392484995E+02 RG= 1.071710488013219E+08 RR=-2.859268061748760E-01
2461128.500000000 = A.D. 2026-Mar-29 00:00:00.0000 TDB 
 X = 6.115491363228448E+07 Y = 8.794971616041631E+07 Z =-2.312305693437845E+06
 VX=-2.888265398097152E+01 VY= 1.979693754214438E+01 VZ= 1.938925627793394E+00
 LT= 3.574030366783832E+02 RG= 1.071467348624767E+08 RR=-2.768592137385845E-01
2461129.500000000 = A.D. 2026-Mar-30 00:00:00.0000 TDB 
 X = 5.863560432803181E+07 Y = 8.962506665405518E+07 Z =-2.143888823344946E+06
 VX=-2.943092004187829E+01 VY= 1.898170883240424E+01 VZ= 1.959359519081085E+00
 LT= 3.573245787362129E+02 RG= 1.071232137631438E+08 RR=-2.675751710611317E-01
2461130.500000000 = A.D. 2026-Mar-31 00:00:00.0000 TDB 
 X = 5.606990879955267E+07 Y = 9.122931265269275E+07 Z =-1.973772427157048E+06
 VX=-2.995633423126501E+01 VY= 1.815110578872762E+01 VZ= 1.978263636837579E+00
 LT= 3.572488268152442E+02 RG= 1.071005039085584E+08 RR=-2.580815639079628E-01
2461131.500000000 = A.D. 2026-Apr-01 00:00:00.0000 TDB 
 X = 5.345982062204721E+07 Y = 9.276115338857101E+07 Z =-1.802089404769853E+06
 VX=-3.045845563761001E+01 VY= 1.730576895751178E+01 VZ= 1.995621340927602E+00
 LT= 3.571758402964970E+02 RG= 1.070786231007022E+08 RR=-2.483854698588888E-01
2461132.500000000 = A.D. 2026-Apr-02 00:00:00.0000 TDB 
 X = 5.080737070246287E+07 Y = 9.421934401177749E+07 Z =-1.628974041866153E+06
 VX=-3.093686108378221E+01 VY= 1.644635210741920E+01 VZ= 2.011417196153040E+00
 LT= 3.571056764942198E+02 RG= 1.070575885219550E+08 RR=-2.384941530905960E-01
2461133.500000000 = A.D. 2026-Apr-03 00:00:00.0000 TDB 
 X = 4.811462572871421E+07 Y = 9.560269671181457E+07 Z =-1.454561905026384E+06
 VX=-3.139114555388979E+01 VY= 1.557352174451042E+01 VZ= 2.025636990220985E+00
 LT= 3.570383906028957E+02 RG= 1.070374167192062E+08 RR=-2.284150589064013E-01
